{
  "links" : {
    "next" : "https://api.nasa.gov/neo/rest/v1/feed?start_date=2002-07-16&end_date=2002-07-16&detailed=true&api_key=t0TVs3DtDT2H8Oy2Zy8m2eVrNsAVKAexjcZXUckd",
    "prev" : "https://api.nasa.gov/neo/rest/v1/feed?start_date=2002-07-14&end_date=2002-07-14&detailed=true&api_key=t0TVs3DtDT2H8Oy2Zy8m2eVrNsAVKAexjcZXUckd",
    "self" : "https://api.nasa.gov/neo/rest/v1/feed?start_date=2002-07-15&end_date=2002-07-15&detailed=true&api_key=t0TVs3DtDT2H8Oy2Zy8m2eVrNsAVKAexjcZXUckd"
  },
  "element_count" : 4,
  "near_earth_objects" : {
    "2002-07-15" : [ {
      "links" : {
        "self" : "https://api.nasa.gov/neo/rest/v1/neo/2302591?api_key=t0TVs3DtDT2H8Oy2Zy8m2eVrNsAVKAexjcZXUckd"
      },
      "neo_reference_id" : "2302591",
      "name" : "302591 (2002 QE7)",
      "nasa_jpl_url" : "http://ssd.jpl.nasa.gov/sbdb.cgi?sstr=2302591",
      "absolute_magnitude_h" : 19.7,
      "estimated_diameter" : {
        "kilometers" : {
          "estimated_diameter_min" : 0.3051792326,
          "estimated_diameter_max" : 0.6824015094
        },
        "meters" : {
          "estimated_diameter_min" : 305.1792325939,
          "estimated_diameter_max" : 682.4015094011
        },
        "miles" : {
          "estimated_diameter_min" : 0.1896295249,
          "estimated_diameter_max" : 0.4240245083
        },
        "feet" : {
          "estimated_diameter_min" : 1001.2442334633,
          "estimated_diameter_max" : 2238.8501681036
        }
      },
      "is_potentially_hazardous_asteroid" : false,
      "close_approach_data" : [ {
        "close_approach_date" : "2002-07-15",
        "epoch_date_close_approach" : 1026716400000,
        "relative_velocity" : {
          "kilometers_per_second" : "4.871316756",
          "kilometers_per_hour" : "17536.7403217202",
          "miles_per_hour" : "10896.6484515711"
        },
        "miss_distance" : {
          "astronomical" : "0.2914460735",
          "lunar" : "113.3725204468",
          "kilometers" : "43599712",
          "miles" : "27091604"
        },
        "orbiting_body" : "Earth"
      } ],
      "orbital_data" : {
        "orbit_id" : "44",
        "orbit_determination_date" : "2017-04-06 09:24:07",
        "orbit_uncertainty" : "0",
        "minimum_orbit_intersection" : ".291648",
        "jupiter_tisserand_invariant" : "4.562",
        "epoch_osculation" : "2458000.5",
        "eccentricity" : ".1812409732813078",
        "semi_major_axis" : "1.469722274042808",
        "inclination" : "12.11108901835089",
        "ascending_node_longitude" : "244.4941688974304",
        "orbital_period" : "650.8056894966463",
        "perihelion_distance" : "1.203348378642072",
        "perihelion_argument" : "88.42834561117346",
        "aphelion_distance" : "1.736096169443544",
        "perihelion_time" : "2457728.114022289791",
        "mean_anomaly" : "150.6731633700334",
        "mean_motion" : ".5531604990706755",
        "equinox" : "J2000"
      }
    }, {
      "links" : {
        "self" : "https://api.nasa.gov/neo/rest/v1/neo/2459872?api_key=t0TVs3DtDT2H8Oy2Zy8m2eVrNsAVKAexjcZXUckd"
      },
      "neo_reference_id" : "2459872",
      "name" : "459872 (2014 EK24)",
      "nasa_jpl_url" : "http://ssd.jpl.nasa.gov/sbdb.cgi?sstr=2459872",
      "absolute_magnitude_h" : 23.3,
      "estimated_diameter" : {
        "kilometers" : {
          "estimated_diameter_min" : 0.058150704,
          "estimated_diameter_max" : 0.130028927
        },
        "meters" : {
          "estimated_diameter_min" : 58.1507039646,
          "estimated_diameter_max" : 130.0289270043
        },
        "miles" : {
          "estimated_diameter_min" : 0.0361331611,
          "estimated_diameter_max" : 0.0807962044
        },
        "feet" : {
          "estimated_diameter_min" : 190.7831555951,
          "estimated_diameter_max" : 426.6041048727
        }
      },
      "is_potentially_hazardous_asteroid" : false,
      "close_approach_data" : [ {
        "close_approach_date" : "2002-07-15",
        "epoch_date_close_approach" : 1026716400000,
        "relative_velocity" : {
          "kilometers_per_second" : "15.8453129506",
          "kilometers_per_hour" : "57043.1266220761",
          "miles_per_hour" : "35444.380539145"
        },
        "miss_distance" : {
          "astronomical" : "0.4702131684",
          "lunar" : "182.9129180908",
          "kilometers" : "70342888",
          "miles" : "43709044"
        },
        "orbiting_body" : "Earth"
      } ],
      "orbital_data" : {
        "orbit_id" : "95",
        "orbit_determination_date" : "2017-09-28 06:49:30",
        "orbit_uncertainty" : "0",
        "minimum_orbit_intersection" : ".0323227",
        "jupiter_tisserand_invariant" : "6.043",
        "epoch_osculation" : "2458000.5",
        "eccentricity" : ".06993968723119405",
        "semi_major_axis" : "1.006795131886997",
        "inclination" : "4.804114507035086",
        "ascending_node_longitude" : "340.6859698627853",
        "orbital_period" : "368.9861688665313",
        "perihelion_distance" : ".9363801952569314",
        "perihelion_argument" : "63.14743860127756",
        "aphelion_distance" : "1.077210068517062",
        "perihelion_time" : "2458074.712309584151",
        "mean_anomaly" : "287.5950328101372",
        "mean_motion" : ".975646326001499",
        "equinox" : "J2000"
      }
    }, {
      "links" : {
        "self" : "https://api.nasa.gov/neo/rest/v1/neo/3363697?api_key=t0TVs3DtDT2H8Oy2Zy8m2eVrNsAVKAexjcZXUckd"
      },
      "neo_reference_id" : "3363697",
      "name" : "(2006 XP4)",
      "nasa_jpl_url" : "http://ssd.jpl.nasa.gov/sbdb.cgi?sstr=3363697",
      "absolute_magnitude_h" : 23.9,
      "estimated_diameter" : {
        "kilometers" : {
          "estimated_diameter_min" : 0.04411182,
          "estimated_diameter_max" : 0.0986370281
        },
        "meters" : {
          "estimated_diameter_min" : 44.1118199997,
          "estimated_diameter_max" : 98.6370281305
        },
        "miles" : {
          "estimated_diameter_min" : 0.0274098057,
          "estimated_diameter_max" : 0.0612901888
        },
        "feet" : {
          "estimated_diameter_min" : 144.7238235278,
          "estimated_diameter_max" : 323.6123073718
        }
      },
      "is_potentially_hazardous_asteroid" : false,
      "close_approach_data" : [ {
        "close_approach_date" : "2002-07-15",
        "epoch_date_close_approach" : 1026716400000,
        "relative_velocity" : {
          "kilometers_per_second" : "10.1676514524",
          "kilometers_per_hour" : "36603.5452285946",
          "miles_per_hour" : "22744.0195338454"
        },
        "miss_distance" : {
          "astronomical" : "0.3278995754",
          "lunar" : "127.5529327393",
          "kilometers" : "49053080",
          "miles" : "30480170"
        },
        "orbiting_body" : "Earth"
      } ],
      "orbital_data" : {
        "orbit_id" : "29",
        "orbit_determination_date" : "2017-04-06 09:07:21",
        "orbit_uncertainty" : "0",
        "minimum_orbit_intersection" : ".00422625",
        "jupiter_tisserand_invariant" : "6.762",
        "epoch_osculation" : "2458000.5",
        "eccentricity" : ".2147618645080877",
        "semi_major_axis" : ".872678146571169",
        "inclination" : ".5128147726831948",
        "ascending_node_longitude" : "295.0422151854324",
        "orbital_period" : "297.7690653526021",
        "perihelion_distance" : ".6852601606980825",
        "perihelion_argument" : "345.1071886134371",
        "aphelion_distance" : "1.060096132444256",
        "perihelion_time" : "2458120.359373961013",
        "mean_anomaly" : "215.0911439545623",
        "mean_motion" : "1.208990596701868",
        "equinox" : "J2000"
      }
    }, {
      "links" : {
        "self" : "https://api.nasa.gov/neo/rest/v1/neo/3605885?api_key=t0TVs3DtDT2H8Oy2Zy8m2eVrNsAVKAexjcZXUckd"
      },
      "neo_reference_id" : "3605885",
      "name" : "(2012 MO3)",
      "nasa_jpl_url" : "http://ssd.jpl.nasa.gov/sbdb.cgi?sstr=3605885",
      "absolute_magnitude_h" : 20.8,
      "estimated_diameter" : {
        "kilometers" : {
          "estimated_diameter_min" : 0.1838886721,
          "estimated_diameter_max" : 0.411187571
        },
        "meters" : {
          "estimated_diameter_min" : 183.8886720703,
          "estimated_diameter_max" : 411.1875710413
        },
        "miles" : {
          "estimated_diameter_min" : 0.1142630881,
          "estimated_diameter_max" : 0.2555000322
        },
        "feet" : {
          "estimated_diameter_min" : 603.309310875,
          "estimated_diameter_max" : 1349.040630575
        }
      },
      "is_potentially_hazardous_asteroid" : false,
      "close_approach_data" : [ {
        "close_approach_date" : "2002-07-15",
        "epoch_date_close_approach" : 1026716400000,
        "relative_velocity" : {
          "kilometers_per_second" : "9.9872133486",
          "kilometers_per_hour" : "35953.9680547923",
          "miles_per_hour" : "22340.3975393792"
        },
        "miss_distance" : {
          "astronomical" : "0.4122831392",
          "lunar" : "160.3781433105",
          "kilometers" : "61676684",
          "miles" : "38324112"
        },
        "orbiting_body" : "Earth"
      } ],
      "orbital_data" : {
        "orbit_id" : "20",
        "orbit_determination_date" : "2017-04-06 08:49:31",
        "orbit_uncertainty" : "2",
        "minimum_orbit_intersection" : ".087694",
        "jupiter_tisserand_invariant" : "6.281",
        "epoch_osculation" : "2458000.5",
        "eccentricity" : ".4665039428488042",
        "semi_major_axis" : ".9373697168564233",
        "inclination" : "13.43041949039364",
        "ascending_node_longitude" : "220.1490180896089",
        "orbital_period" : "331.4857054292076",
        "perihelion_distance" : ".5000830480358346",
        "perihelion_argument" : "279.9740417372709",
        "aphelion_distance" : "1.374656385677012",
        "perihelion_time" : "2457983.148802477827",
        "mean_anomaly" : "18.84374199452879",
        "mean_motion" : "1.086019680800028",
        "equinox" : "J2000"
      }
    } ]
  }
}